COSMOS 2058             
1 20465U 90010A   26185.01048021  .00003360  00000+0  19339-3 0  9994
2 20465  82.4686 292.7649 0008304 296.4438  63.5940 15.12115433959818
SL-14 R/B               
1 20466U 90010B   26185.02857072  .00000449  00000+0  51482-4 0  9991
2 20466  82.5025 158.1284 0018196 277.1980  82.7167 14.83657645945738
SL-14 R/B               
1 20511U 90018B   26185.22592256  .00000493  00000+0  58710-4 0  9992
2 20511  82.5221 114.1829 0017630  70.3890 289.9225 14.82228417939840
HST                     
1 20580U 90037B   26185.09309830  .00008649  00000+0  27319-3 0  9999
2 20580  28.4737 325.0166 0001696 352.4976   7.5595 15.30955000791162
SL-16 R/B               
1 20625U 90046B   26185.05543920 -.00000203  00000+0 -80160-4 0  9999
2 20625  70.9989  53.5223 0012494 134.0723 226.1431 14.15023800864853
COSMOS 2084             
1 20663U 90055A   26185.05795997  .00002763  00000+0  20123-3 0  9997
2 20663  62.7912 298.5056 0006793 306.0531  53.9939 15.06189851953845
SL-6 R/B(2)             
1 20666U 90055D   26185.06977461  .00001818  00000+0  14285-3 0  9991
2 20666  62.7801 217.9244 0043367   7.4323 352.7410 15.04056150955690
SL-8 R/B                
1 20775U 90078B   26185.15386434  .00031846  00000+0  90123-3 0  9990
2 20775  82.9026 146.3047 0345879 341.1186  17.7457 14.93190152826658
SL-8 R/B                
1 21088U 91006B   26185.15132843  .00000100  00000+0  84303-4 0  9996
2 21088  82.9420  83.4139 0023825  69.8327  83.3364 13.77507759780103
OKEAN-3                 
1 21397U 91039A   26185.08871712  .00002434  00000+0  16762-3 0  9997
2 21397  82.5143 223.9915 0012142 295.6867  64.3106 15.05398118882549
COSMOS 2151             
1 21422U 91042A   26185.06514442  .00001830  00000+0  14297-3 0  9992
2 21422  82.4973 331.3914 0012985  32.1452 328.0562 15.00488365880644
SL-14 R/B               
1 21423U 91042B   26185.23606079  .00000420  00000+0  50062-4 0  9995
2 21423  82.4935 110.9086 0016029 213.8514 146.1678 14.81913270870332
ERS-1                   
1 21574U 91050A   26184.49905614  .00000363  00000+0  13050-3 0  9996
2 21574  98.7793 205.5954 0031220 216.9380 142.9657 14.39528005832397
ARIANE 40 R/B           
1 21610U 91050F   26185.03792056  .00000328  00000+0  11052-3 0  9993
2 21610  98.1866 232.7978 0004439  85.3912 274.7786 14.42967097835776
INTERCOSMOS 25          
1 21819U 91086A   26185.11485667  .00001018  00000+0  20125-3 0  9997
2 21819  82.6025 239.5663 1484072 225.8414 121.0926 12.12222946510796
SL-8 R/B                
1 21876U 92008B   26185.27680762  .00000151  00000+0  13911-3 0  9997
2 21876  82.9261 181.0808 0034981 166.5785 204.3674 13.75981403725453
SL-8 R/B                
1 21938U 92020B   26185.16869117  .00000045  00000+0  31499-4 0  9995
2 21938  82.9295  67.2434 0028557 335.3299 189.2884 13.75550210717146
USA 81                  
1 21949U 92023A   26185.11018099  .00000187  00000+0  61985-4 0  9990
2 21949  85.0061  64.2394 0002417  70.3911 289.7542 14.32402762111450
COSMOS 2219             
1 22219U 92076A   26185.09683041  .00000093  00000+0  73486-4 0  9996
2 22219  71.0610 134.7228 0017534  15.4091 344.7561 14.14109557734832
SL-16 R/B               
1 22220U 92076B   26185.06615904 -.00000114  00000+0 -32852-4 0  9996
2 22220  71.0012 303.2245 0015045 276.4800 256.3620 14.16874121738313
COSMOS 2221             
1 22236U 92080A   26185.18883405  .00001807  00000+0  15619-3 0  9993
2 22236  82.5035 167.4750 0014846 154.5586 205.6370 14.96579990798216
SL-16 R/B               
1 22285U 92093B   26185.20312246  .00000230  00000+0  14196-3 0  9992
2 22285  71.0219 119.6702 0002962 156.9403 203.1853 14.15465545729644
COSMOS 2228             
1 22286U 92094A   26185.25902110  .00002245  00000+0  18928-3 0  9999
2 22286  82.5186 125.6908 0015956 269.8499  90.0895 14.97648794793500
SL-16 R/B               
1 22566U 93016B   26184.83157383 -.00000265  00000+0 -11161-3 0  9996
2 22566  71.0087 331.2476 0009199 158.3665 201.7848 14.15313257718608
COSMOS 2242             
1 22626U 93024A   26185.15945142  .00002026  00000+0  17379-3 0  9998
2 22626  82.5190 155.3046 0014391 274.1666  85.7911 14.96958155797815
SL-16 R/B               
1 22803U 93059B   26185.07628702  .00000203  00000+0  12424-3 0  9995
2 22803  70.9902 125.6878 0016050  26.1624 334.0307 14.17250510696023
ARIANE 40 R/B           
1 22830U 93061H   26185.17360527  .00000228  00000+0  99393-4 0  9995
2 22830  98.4811 251.6774 0009593 302.5493  57.4765 14.32915060710780
COSMOS 2278             
1 23087U 94023A   26185.00819219 -.00000219  00000+0 -89561-4 0  9996
2 23087  71.0545 291.7319 0010190 222.4829 137.5506 14.14396060661257
SL-16 R/B               
1 23088U 94023B   26185.28521521 -.00000237  00000+0 -97581-4 0  9994
2 23088  70.9978 186.0239 0001690 165.1887 194.9285 14.15025623662588
SL-16 R/B               
1 23343U 94074B   26185.12017394  .00000502  00000+0  73763-4 0  9994
2 23343  97.6985 211.1352 0006182 189.0977 218.1095 14.79517265704468
