OBJECT_NAME,OBJECT_ID,EPOCH,MEAN_MOTION,ECCENTRICITY,INCLINATION,RA_OF_ASC_NODE,ARG_OF_PERICENTER,MEAN_ANOMALY,EPHEMERIS_TYPE,CLASSIFICATION_TYPE,NORAD_CAT_ID,ELEMENT_SET_NO,REV_AT_EPOCH,BSTAR,MEAN_MOTION_DOT,MEAN_MOTION_DDOT
COSMOS 2058,1990-010A,2026-07-04T00:15:05.490144,15.12115433,.0008304,82.4686,292.7649,296.4438,63.5940,0,U,20465,999,95981,.19338766E-3,.336E-4,0
SL-14 R/B,1990-010B,2026-07-04T00:41:08.510208,14.83657645,.0018196,82.5025,158.1284,277.1980,82.7167,0,U,20466,999,94573,.51481681E-4,.449E-5,0
SL-14 R/B,1990-018B,2026-07-04T05:25:19.709184,14.82228417,.00176303,82.5221,114.1829,70.3890,289.9225,0,U,20511,999,93984,.58709853E-4,.493E-5,0
HST,1990-037B,2026-07-04T02:14:03.693120,15.30955000,.00016965,28.4737,325.0166,352.4976,7.5595,0,U,20580,999,79116,.27319191E-3,.8649E-4,0
SL-16 R/B,1990-046B,2026-07-04T01:19:49.946880,14.15023800,.00124943,70.9989,53.5223,134.0723,226.1431,0,U,20625,999,86485,-.80160372E-4,-.203E-5,0
COSMOS 2084,1990-055A,2026-07-04T01:23:27.741408,15.06189851,.00067933,62.7912,298.5056,306.0531,53.9939,0,U,20663,999,95384,.20122579E-3,.2763E-4,0
SL-6 R/B(2),1990-055D,2026-07-04T01:40:28.526304,15.04056150,.00433675,62.7801,217.9244,7.4323,352.7410,0,U,20666,999,95569,.14284592E-3,.1818E-4,0
SL-8 R/B,1990-078B,2026-07-04T03:41:33.878976,14.93190152,.03458797,82.9026,146.3047,341.1186,17.7457,0,U,20775,999,82665,.9012323E-3,.31846E-3,0
SL-8 R/B,1991-006B,2026-07-04T03:37:54.776352,13.77507759,.00238259,82.9420,83.4139,69.8327,83.3364,0,U,21088,999,78010,.84303364E-4,.1E-5,0
OKEAN-3,1991-039A,2026-07-04T02:07:45.159168,15.05398118,.00121424,82.5143,223.9915,295.6867,64.3106,0,U,21397,999,88254,.16762485E-3,.2434E-4,0
COSMOS 2151,1991-042A,2026-07-04T01:33:48.477888,15.00488365,.0012985,82.4973,331.3914,32.1452,328.0562,0,U,21422,999,88064,.14297043E-3,.183E-4,0
SL-14 R/B,1991-042B,2026-07-04T05:39:55.652256,14.81913270,.00160293,82.4935,110.9086,213.8514,146.1678,0,U,21423,999,87033,.5006215E-4,.42E-5,0
ERS-1,1991-050A,2026-07-03T11:58:38.450496,14.39528005,.00312203,98.7793,205.5954,216.9380,142.9657,0,U,21574,999,83239,.1305005E-3,.363E-5,0
ARIANE 40 R/B,1991-050F,2026-07-04T00:54:36.336384,14.42967097,.00044391,98.1866,232.7978,85.3912,274.7786,0,U,21610,999,83577,.11051766E-3,.328E-5,0
INTERCOSMOS 25,1991-086A,2026-07-04T02:45:23.616288,12.12222946,.14840723,82.6025,239.5663,225.8414,121.0926,0,U,21819,999,51079,.20125244E-3,.1018E-4,0
SL-8 R/B,1992-008B,2026-07-04T06:38:36.178368,13.75981403,.00349814,82.9261,181.0808,166.5785,204.3674,0,U,21876,999,72545,.13910592E-3,.151E-5,0
SL-8 R/B,1992-020B,2026-07-04T04:02:54.917088,13.75550210,.00285572,82.9295,67.2434,335.3299,189.2884,0,U,21938,999,71714,.31498665E-4,.45E-6,0
USA 81,1992-023A,2026-07-04T02:38:39.637536,14.32402762,.00024179,85.0061,64.2394,70.3911,289.7542,0,U,21949,999,11145,.61984947E-4,.187E-5,0
COSMOS 2219,1992-076A,2026-07-04T02:19:26.147424,14.14109557,.00175345,71.0610,134.7228,15.4091,344.7561,0,U,22219,999,73483,.73485542E-4,.93E-6,0
SL-16 R/B,1992-076B,2026-07-04T01:35:16.141056,14.16874121,.00150455,71.0012,303.2245,276.4800,256.3620,0,U,22220,999,73831,-.32851501E-4,-.114E-5,0
COSMOS 2221,1992-080A,2026-07-04T04:31:55.261920,14.96579990,.00148469,82.5035,167.4750,154.5586,205.6370,0,U,22236,999,79821,.15618959E-3,.1807E-4,0
SL-16 R/B,1992-093B,2026-07-04T04:52:29.780544,14.15465545,.00029629,71.0219,119.6702,156.9403,203.1853,0,U,22285,999,72964,.14195507E-3,.23E-5,0
COSMOS 2228,1992-094A,2026-07-04T06:12:59.423040,14.97648794,.00159567,82.5186,125.6908,269.8499,90.0895,0,U,22286,999,79350,.18927982E-3,.2245E-4,0
SL-16 R/B,1993-016B,2026-07-03T19:57:27.978912,14.15313257,.00091993,71.0087,331.2476,158.3665,201.7848,0,U,22566,999,71860,-.11160523E-3,-.265E-5,0
COSMOS 2242,1993-024A,2026-07-04T03:49:36.602688,14.96958155,.0014391,82.5190,155.3046,274.1666,85.7911,0,U,22626,999,79781,.17379009E-3,.2026E-4,0
SL-16 R/B,1993-059B,2026-07-04T01:49:51.198528,14.17250510,.00160501,70.9902,125.6878,26.1624,334.0307,0,U,22803,999,69602,.12423768E-3,.203E-5,0
ARIANE 40 R/B,1993-061H,2026-07-04T04:09:59.495328,14.32915060,.0009593,98.4811,251.6774,302.5493,57.4765,0,U,22830,999,71078,.99392798E-4,.228E-5,0
COSMOS 2278,1994-023A,2026-07-04T00:11:47.805216,14.14396060,.00101901,71.0545,291.7319,222.4829,137.5506,0,U,23087,999,66125,-.89560896E-4,-.219E-5,0
SL-16 R/B,1994-023B,2026-07-04T06:50:42.594144,14.15025623,.00016908,70.9978,186.0239,165.1887,194.9285,0,U,23088,999,66258,-.97581343E-4,-.237E-5,0
SL-16 R/B,1994-074B,2026-07-04T02:53:03.028416,14.79517265,.00061825,97.6985,211.1352,189.0977,218.1095,0,U,23343,999,70446,.73762598E-4,.502E-5,0
